[{"OBJECT_NAME":"STARLINK-4125","OBJECT_ID":"2022-086C","EPOCH":"2026-03-09T15:14:33.930816","MEAN_MOTION":15.08842186,"ECCENTRICITY":0.0001104,"INCLINATION":53.2174,"RA_OF_ASC_NODE":204.4453,"ARG_OF_PERICENTER":81.4624,"MEAN_ANOMALY":278.6494,"EPHEMERIS_TYPE":0,"CLASSIFICATION_TYPE":"U","NORAD_CAT_ID":53244,"ELEMENT_SET_NO":999,"REV_AT_EPOCH":20123,"BSTAR":2.4809e-6,"MEAN_MOTION_DOT":-2.48e-6,"MEAN_MOTION_DDOT":0},{"OBJECT_NAME":"H-2A R\/B","OBJECT_ID":"2025-141B","EPOCH":"2026-03-09T20:50:08.593728","MEAN_MOTION":14.90469893,"ECCENTRICITY":0.00923902,"INCLINATION":98.076,"RA_OF_ASC_NODE":17.3096,"ARG_OF_PERICENTER":151.0716,"MEAN_ANOMALY":209.5668,"EPHEMERIS_TYPE":0,"CLASSIFICATION_TYPE":"U","NORAD_CAT_ID":64695,"ELEMENT_SET_NO":999,"REV_AT_EPOCH":3783,"BSTAR":0.00033350933,"MEAN_MOTION_DOT":3.464e-5,"MEAN_MOTION_DDOT":0}]
